[{"OBJECT_NAME":"STARLINK-33580","OBJECT_ID":"2025-087Q","EPOCH":"2025-08-01T03:24:28.596960","MEAN_MOTION":15.39626885,"ECCENTRICITY":0.000126,"INCLINATION":53.1575,"RA_OF_ASC_NODE":165.3398,"ARG_OF_PERICENTER":76.0196,"MEAN_ANOMALY":284.0949,"EPHEMERIS_TYPE":0,"CLASSIFICATION_TYPE":"U","NORAD_CAT_ID":63711,"ELEMENT_SET_NO":999,"REV_AT_EPOCH":1541,"BSTAR":0.00063769,"MEAN_MOTION_DOT":0.00025197,"MEAN_MOTION_DDOT":0},{"OBJECT_NAME":"STARLINK-33783","OBJECT_ID":"2025-087R","EPOCH":"2025-08-01T06:00:02.000160","MEAN_MOTION":15.39574349,"ECCENTRICITY":0.0001326,"INCLINATION":53.1575,"RA_OF_ASC_NODE":164.7295,"ARG_OF_PERICENTER":82.4478,"MEAN_ANOMALY":208.2643,"EPHEMERIS_TYPE":0,"CLASSIFICATION_TYPE":"U","NORAD_CAT_ID":63712,"ELEMENT_SET_NO":999,"REV_AT_EPOCH":1542,"BSTAR":0.0015673,"MEAN_MOTION_DOT":0.00062714,"MEAN_MOTION_DDOT":0},{"OBJECT_NAME":"STARLINK-33773","OBJECT_ID":"2025-087S","EPOCH":"2025-08-01T04:31:12.909504","MEAN_MOTION":15.39602973,"ECCENTRICITY":0.0001246,"INCLINATION":53.1579,"RA_OF_ASC_NODE":164.916,"ARG_OF_PERICENTER":78.192,"MEAN_ANOMALY":281.9224,"EPHEMERIS_TYPE":0,"CLASSIFICATION_TYPE":"U","NORAD_CAT_ID":63713,"ELEMENT_SET_NO":999,"REV_AT_EPOCH":1542,"BSTAR":0.0016051,"MEAN_MOTION_DOT":0.0006431,"MEAN_MOTION_DDOT":0},{"OBJECT_NAME":"STARLINK-33745","OBJECT_ID":"2025-087T","EPOCH":"2025-08-01T04:30:43.600896","MEAN_MOTION":15.39626973,"ECCENTRICITY":0.0001386,"INCLINATION":53.1577,"RA_OF_ASC_NODE":164.9137,"ARG_OF_PERICENTER":69.8364,"MEAN_ANOMALY":290.279,"EPHEMERIS_TYPE":0,"CLASSIFICATION_TYPE":"U","NORAD_CAT_ID":63714,"ELEMENT_SET_NO":999,"REV_AT_EPOCH":1542,"BSTAR":0.0015552,"MEAN_MOTION_DOT":0.00062332,"MEAN_MOTION_DDOT":0},{"OBJECT_NAME":"STARLINK-33728","OBJECT_ID":"2025-087U","EPOCH":"2025-08-01T01:17:05.015328","MEAN_MOTION":15.39639299,"ECCENTRICITY":0.0001165,"INCLINATION":53.1576,"RA_OF_ASC_NODE":165.4997,"ARG_OF_PERICENTER":70.5248,"MEAN_ANOMALY":289.5883,"EPHEMERIS_TYPE":0,"CLASSIFICATION_TYPE":"U","NORAD_CAT_ID":63715,"ELEMENT_SET_NO":999,"REV_AT_EPOCH":1540,"BSTAR":0.0012434,"MEAN_MOTION_DOT":0.00049692,"MEAN_MOTION_DDOT":0},{"OBJECT_NAME":"STARLINK-33749","OBJECT_ID":"2025-087V","EPOCH":"2025-08-01T04:17:21.007104","MEAN_MOTION":15.39610332,"ECCENTRICITY":0.000125,"INCLINATION":53.1571,"RA_OF_ASC_NODE":164.8576,"ARG_OF_PERICENTER":88.2338,"MEAN_ANOMALY":271.881,"EPHEMERIS_TYPE":0,"CLASSIFICATION_TYPE":"U","NORAD_CAT_ID":63716,"ELEMENT_SET_NO":999,"REV_AT_EPOCH":1542,"BSTAR":0.001261,"MEAN_MOTION_DOT":0.00050357,"MEAN_MOTION_DDOT":0},{"OBJECT_NAME":"STARLINK-33725","OBJECT_ID":"2025-087W","EPOCH":"2025-08-01T04:37:53.594688","MEAN_MOTION":15.39639537,"ECCENTRICITY":0.0001375,"INCLINATION":53.1581,"RA_OF_ASC_NODE":164.9512,"ARG_OF_PERICENTER":57.8759,"MEAN_ANOMALY":302.2379,"EPHEMERIS_TYPE":0,"CLASSIFICATION_TYPE":"U","NORAD_CAT_ID":63717,"ELEMENT_SET_NO":999,"REV_AT_EPOCH":1542,"BSTAR":0.00087968,"MEAN_MOTION_DOT":0.00034971,"MEAN_MOTION_DDOT":0},{"OBJECT_NAME":"STARLINK-33641","OBJECT_ID":"2025-087X","EPOCH":"2025-08-01T02:37:40.120896","MEAN_MOTION":15.39620718,"ECCENTRICITY":0.0001006,"INCLINATION":53.157,"RA_OF_ASC_NODE":165.1353,"ARG_OF_PERICENTER":102.1698,"MEAN_ANOMALY":257.9419,"EPHEMERIS_TYPE":0,"CLASSIFICATION_TYPE":"U","NORAD_CAT_ID":63718,"ELEMENT_SET_NO":999,"REV_AT_EPOCH":1541,"BSTAR":0.0016262,"MEAN_MOTION_DOT":0.00065207,"MEAN_MOTION_DDOT":0},{"OBJECT_NAME":"STARLINK-33727","OBJECT_ID":"2025-087Y","EPOCH":"2025-07-31T22:00:01.999584","MEAN_MOTION":15.39591339,"ECCENTRICITY":0.0001349,"INCLINATION":53.1568,"RA_OF_ASC_NODE":166.5523,"ARG_OF_PERICENTER":99.3013,"MEAN_ANOMALY":14.066,"EPHEMERIS_TYPE":0,"CLASSIFICATION_TYPE":"U","NORAD_CAT_ID":63719,"ELEMENT_SET_NO":999,"REV_AT_EPOCH":590,"BSTAR":0.00083836,"MEAN_MOTION_DOT":0.00033249,"MEAN_MOTION_DDOT":0},{"OBJECT_NAME":"STARLINK-33757","OBJECT_ID":"2025-087Z","EPOCH":"2025-08-01T02:30:58.958784","MEAN_MOTION":15.39618084,"ECCENTRICITY":0.0001259,"INCLINATION":53.1561,"RA_OF_ASC_NODE":165.1058,"ARG_OF_PERICENTER":111.9545,"MEAN_ANOMALY":248.1594,"EPHEMERIS_TYPE":0,"CLASSIFICATION_TYPE":"U","NORAD_CAT_ID":63720,"ELEMENT_SET_NO":999,"REV_AT_EPOCH":1541,"BSTAR":0.0016378,"MEAN_MOTION_DOT":0.00065673,"MEAN_MOTION_DDOT":0},{"OBJECT_NAME":"STARLINK-33774","OBJECT_ID":"2025-087AA","EPOCH":"2025-08-01T03:31:10.921152","MEAN_MOTION":15.39621898,"ECCENTRICITY":0.0001446,"INCLINATION":53.1572,"RA_OF_ASC_NODE":165.3672,"ARG_OF_PERICENTER":118.0026,"MEAN_ANOMALY":242.1125,"EPHEMERIS_TYPE":0,"CLASSIFICATION_TYPE":"U","NORAD_CAT_ID":63721,"ELEMENT_SET_NO":999,"REV_AT_EPOCH":1541,"BSTAR":0.0011426,"MEAN_MOTION_DOT":0.0004558,"MEAN_MOTION_DDOT":0},{"OBJECT_NAME":"STARLINK-33767","OBJECT_ID":"2025-087AB","EPOCH":"2025-08-01T00:44:08.011392","MEAN_MOTION":15.39613348,"ECCENTRICITY":9.45e-5,"INCLINATION":53.1565,"RA_OF_ASC_NODE":165.351,"ARG_OF_PERICENTER":69.7995,"MEAN_ANOMALY":290.3112,"EPHEMERIS_TYPE":0,"CLASSIFICATION_TYPE":"U","NORAD_CAT_ID":63722,"ELEMENT_SET_NO":999,"REV_AT_EPOCH":1539,"BSTAR":0.0012732,"MEAN_MOTION_DOT":0.00050856,"MEAN_MOTION_DDOT":0},{"OBJECT_NAME":"STARLINK-33806","OBJECT_ID":"2025-087AC","EPOCH":"2025-08-01T03:57:46.370592","MEAN_MOTION":15.39634783,"ECCENTRICITY":0.0001184,"INCLINATION":53.1563,"RA_OF_ASC_NODE":164.7681,"ARG_OF_PERICENTER":91.1066,"MEAN_ANOMALY":269.0074,"EPHEMERIS_TYPE":0,"CLASSIFICATION_TYPE":"U","NORAD_CAT_ID":63723,"ELEMENT_SET_NO":999,"REV_AT_EPOCH":1542,"BSTAR":0.0005964,"MEAN_MOTION_DOT":0.00023541,"MEAN_MOTION_DDOT":0},{"OBJECT_NAME":"STARLINK-11677 [DTC]","OBJECT_ID":"2025-089A","EPOCH":"2025-07-31T22:33:02.831904","MEAN_MOTION":15.70946138,"ECCENTRICITY":0.0001698,"INCLINATION":42.9992,"RA_OF_ASC_NODE":183.1802,"ARG_OF_PERICENTER":255.6169,"MEAN_ANOMALY":104.451,"EPHEMERIS_TYPE":0,"CLASSIFICATION_TYPE":"U","NORAD_CAT_ID":63751,"ELEMENT_SET_NO":999,"REV_AT_EPOCH":1541,"BSTAR":0.0022504,"MEAN_MOTION_DOT":0.00300324,"MEAN_MOTION_DDOT":0},{"OBJECT_NAME":"STARLINK-11702 [DTC]","OBJECT_ID":"2025-089B","EPOCH":"2025-07-31T09:42:20.380320","MEAN_MOTION":15.70892018,"ECCENTRICITY":0.0001607,"INCLINATION":43.0001,"RA_OF_ASC_NODE":186.0305,"ARG_OF_PERICENTER":270.2238,"MEAN_ANOMALY":89.8445,"EPHEMERIS_TYPE":0,"CLASSIFICATION_TYPE":"U","NORAD_CAT_ID":63752,"ELEMENT_SET_NO":999,"REV_AT_EPOCH":1533,"BSTAR":0.0016524,"MEAN_MOTION_DOT":0.00217698,"MEAN_MOTION_DDOT":0},{"OBJECT_NAME":"STARLINK-11706 [DTC]","OBJECT_ID":"2025-089C","EPOCH":"2025-07-31T23:03:26.589888","MEAN_MOTION":15.70882248,"ECCENTRICITY":0.0001863,"INCLINATION":42.9986,"RA_OF_ASC_NODE":182.4526,"ARG_OF_PERICENTER":267.3517,"MEAN_ANOMALY":92.7137,"EPHEMERIS_TYPE":0,"CLASSIFICATION_TYPE":"U","NORAD_CAT_ID":63753,"ELEMENT_SET_NO":999,"REV_AT_EPOCH":1542,"BSTAR":0.0017206,"MEAN_MOTION_DOT":0.00226863,"MEAN_MOTION_DDOT":0},{"OBJECT_NAME":"STARLINK-11662 [DTC]","OBJECT_ID":"2025-089D","EPOCH":"2025-07-31T22:10:06.234528","MEAN_MOTION":15.70978648,"ECCENTRICITY":0.000128,"INCLINATION":42.9978,"RA_OF_ASC_NODE":183.0488,"ARG_OF_PERICENTER":235.2511,"MEAN_ANOMALY":124.8236,"EPHEMERIS_TYPE":0,"CLASSIFICATION_TYPE":"U","NORAD_CAT_ID":63754,"ELEMENT_SET_NO":999,"REV_AT_EPOCH":1547,"BSTAR":0.0016411,"MEAN_MOTION_DOT":0.00216976,"MEAN_MOTION_DDOT":0},{"OBJECT_NAME":"STARLINK-11681 [DTC]","OBJECT_ID":"2025-089E","EPOCH":"2025-07-31T22:25:24.222432","MEAN_MOTION":15.70936442,"ECCENTRICITY":0.0001702,"INCLINATION":42.9967,"RA_OF_ASC_NODE":183.1373,"ARG_OF_PERICENTER":137.4195,"MEAN_ANOMALY":222.6805,"EPHEMERIS_TYPE":0,"CLASSIFICATION_TYPE":"U","NORAD_CAT_ID":63755,"ELEMENT_SET_NO":999,"REV_AT_EPOCH":1542,"BSTAR":0.0011866,"MEAN_MOTION_DOT":0.00155316,"MEAN_MOTION_DDOT":0},{"OBJECT_NAME":"STARLINK-11688 [DTC]","OBJECT_ID":"2025-089F","EPOCH":"2025-08-01T01:05:35.308320","MEAN_MOTION":15.70856073,"ECCENTRICITY":0.0003648,"INCLINATION":42.9986,"RA_OF_ASC_NODE":182.2413,"ARG_OF_PERICENTER":289.0925,"MEAN_ANOMALY":70.9548,"EPHEMERIS_TYPE":0,"CLASSIFICATION_TYPE":"U","NORAD_CAT_ID":63756,"ELEMENT_SET_NO":999,"REV_AT_EPOCH":1532,"BSTAR":0.0018478,"MEAN_MOTION_DOT":0.0024394,"MEAN_MOTION_DDOT":0},{"OBJECT_NAME":"STARLINK-11676 [DTC]","OBJECT_ID":"2025-089G","EPOCH":"2025-07-31T22:48:09.263808","MEAN_MOTION":15.70888312,"ECCENTRICITY":0.0001201,"INCLINATION":43.0001,"RA_OF_ASC_NODE":182.3694,"ARG_OF_PERICENTER":257.8953,"MEAN_ANOMALY":102.178,"EPHEMERIS_TYPE":0,"CLASSIFICATION_TYPE":"U","NORAD_CAT_ID":63757,"ELEMENT_SET_NO":999,"REV_AT_EPOCH":1531,"BSTAR":0.0021851,"MEAN_MOTION_DOT":0.00290545,"MEAN_MOTION_DDOT":0},{"OBJECT_NAME":"STARLINK-11705 [DTC]","OBJECT_ID":"2025-089H","EPOCH":"2025-07-31T22:17:45.462624","MEAN_MOTION":15.70962285,"ECCENTRICITY":0.0001364,"INCLINATION":42.9981,"RA_OF_ASC_NODE":183.0917,"ARG_OF_PERICENTER":218.796,"MEAN_ANOMALY":141.281,"EPHEMERIS_TYPE":0,"CLASSIFICATION_TYPE":"U","NORAD_CAT_ID":63758,"ELEMENT_SET_NO":999,"REV_AT_EPOCH":1536,"BSTAR":0.0016361,"MEAN_MOTION_DOT":0.00216143,"MEAN_MOTION_DDOT":0},{"OBJECT_NAME":"STARLINK-11703 [DTC]","OBJECT_ID":"2025-089J","EPOCH":"2025-07-31T23:18:44.148384","MEAN_MOTION":15.70836915,"ECCENTRICITY":0.0002563,"INCLINATION":43.0002,"RA_OF_ASC_NODE":182.5371,"ARG_OF_PERICENTER":279.8236,"MEAN_ANOMALY":80.2342,"EPHEMERIS_TYPE":0,"CLASSIFICATION_TYPE":"U","NORAD_CAT_ID":63759,"ELEMENT_SET_NO":999,"REV_AT_EPOCH":1542,"BSTAR":0.0018374,"MEAN_MOTION_DOT":0.00242294,"MEAN_MOTION_DDOT":0},{"OBJECT_NAME":"STARLINK-11701 [DTC]","OBJECT_ID":"2025-089K","EPOCH":"2025-07-31T22:55:47.659008","MEAN_MOTION":15.70887471,"ECCENTRICITY":0.000163,"INCLINATION":42.9978,"RA_OF_ASC_NODE":182.4079,"ARG_OF_PERICENTER":261.4077,"MEAN_ANOMALY":98.6606,"EPHEMERIS_TYPE":0,"CLASSIFICATION_TYPE":"U","NORAD_CAT_ID":63760,"ELEMENT_SET_NO":999,"REV_AT_EPOCH":1542,"BSTAR":0.001501,"MEAN_MOTION_DOT":0.00197181,"MEAN_MOTION_DDOT":0}]
